[{"OBJECT_NAME":"JY1SAT (JO-97)","OBJECT_ID":"2018-099AX","EPOCH":"2026-03-09T16:28:19.890048","MEAN_MOTION":15.30302629,"ECCENTRICITY":0.00047232,"INCLINATION":97.4249,"RA_OF_ASC_NODE":131.3625,"ARG_OF_PERICENTER":256.6795,"MEAN_ANOMALY":103.3919,"EPHEMERIS_TYPE":0,"CLASSIFICATION_TYPE":"U","NORAD_CAT_ID":43803,"ELEMENT_SET_NO":999,"REV_AT_EPOCH":39839,"BSTAR":0.00060804308,"MEAN_MOTION_DOT":0.00017774,"MEAN_MOTION_DDOT":0},{"OBJECT_NAME":"STARLINK-35385","OBJECT_ID":"2025-224AA","EPOCH":"2026-03-09T05:15:28.942272","MEAN_MOTION":15.30183882,"ECCENTRICITY":9.069e-5,"INCLINATION":53.1605,"RA_OF_ASC_NODE":13.4269,"ARG_OF_PERICENTER":116.6777,"MEAN_ANOMALY":243.4317,"EPHEMERIS_TYPE":0,"CLASSIFICATION_TYPE":"U","NORAD_CAT_ID":65906,"ELEMENT_SET_NO":999,"REV_AT_EPOCH":2478,"BSTAR":0.0010647588,"MEAN_MOTION_DOT":0.00031293,"MEAN_MOTION_DDOT":0}]
